{
    "links": {
        "self": "http://www.neowsapp.com/rest/v1/neo/3608824?api_key=iIulBulltgU6a56xZRHN4H3l9WmuAYTsLGpBGhQ2"
    },
    "id": "3608824",
    "neo_reference_id": "3608824",
    "name": "(2012 SV9)",
    "designation": "2012 SV9",
    "nasa_jpl_url": "http://ssd.jpl.nasa.gov/sbdb.cgi?sstr=3608824",
    "absolute_magnitude_h": 23.9,
    "estimated_diameter": {
        "kilometers": {
            "estimated_diameter_min": 0.04411182,
            "estimated_diameter_max": 0.0986370281
        },
        "meters": {
            "estimated_diameter_min": 44.1118199997,
            "estimated_diameter_max": 98.6370281305
        },
        "miles": {
            "estimated_diameter_min": 0.0274098057,
            "estimated_diameter_max": 0.0612901888
        },
        "feet": {
            "estimated_diameter_min": 144.7238235278,
            "estimated_diameter_max": 323.6123073718
        }
    },
    "is_potentially_hazardous_asteroid": false,
    "close_approach_data": [
        {
            "close_approach_date": "2012-09-02",
            "close_approach_date_full": "2012-Sep-02 14:17",
            "epoch_date_close_approach": 1346595420000,
            "relative_velocity": {
                "kilometers_per_second": "16.4200723043",
                "kilometers_per_hour": "59112.2602954393",
                "miles_per_hour": "36730.0597374634"
            },
            "miss_distance": {
                "astronomical": "0.045457107",
                "lunar": "17.682814623",
                "kilometers": "6800286.38356209",
                "miles": "4225502.019613242"
            },
            "orbiting_body": "Earth"
        }
    ],
    "orbital_data": {
        "orbit_id": "5",
        "orbit_determination_date": "2017-04-06 08:48:55",
        "first_observation_date": "2012-09-19",
        "last_observation_date": "2012-09-24",
        "data_arc_in_days": 5,
        "observations_used": 18,
        "orbit_uncertainty": "9",
        "minimum_orbit_intersection": ".0133066",
        "jupiter_tisserand_invariant": "3.561",
        "epoch_osculation": "2456191.5",
        "eccentricity": ".6308348947489981",
        "semi_major_axis": "1.99944480708827",
        "inclination": "4.774428436021841",
        "ascending_node_longitude": "188.743010053433",
        "orbital_period": "1032.672370185613",
        "perihelion_distance": ".7381252526523103",
        "perihelion_argument": "80.69994475890913",
        "aphelion_distance": "3.26076436152423",
        "perihelion_time": "2456127.531436810742",
        "mean_anomaly": "22.30008608053849",
        "mean_motion": ".3486100823393711",
        "equinox": "J2000",
        "orbit_class": {
            "orbit_class_type": "APO",
            "orbit_class_description": "Near-Earth asteroid orbits which cross the Earth’s orbit similar to that of 1862 Apollo",
            "orbit_class_range": "a (semi-major axis) > 1.0 AU; q (perihelion) < 1.017 AU"
        }
    },
    "is_sentry_object": false
}